OBJECT_NAME,OBJECT_ID,EPOCH,MEAN_MOTION,ECCENTRICITY,INCLINATION,RA_OF_ASC_NODE,ARG_OF_PERICENTER,MEAN_ANOMALY,EPHEMERIS_TYPE,CLASSIFICATION_TYPE,NORAD_CAT_ID,ELEMENT_SET_NO,REV_AT_EPOCH,BSTAR,MEAN_MOTION_DOT,MEAN_MOTION_DDOT
SAR-LUPE 2,2007-030A,2026-07-13T12:33:17.676000,15.53577011,.0004732,98.1059,302.3043,208.2213,151.8782,0,U,31797,999,6102,.43322E-3,.27536E-3,0
SAPPHIRE,2013-009C,2026-07-13T12:20:14.428032,14.35247289,.0011483,98.4272,13.3462,164.7701,195.3833,0,U,39088,999,70035,.28925E-4,.4E-6,0
PRAETORIAN SDA_602,2025-203A,2026-07-13T11:35:45.481920,13.83887782,.0007028,81.3041,346.4205,121.4684,238.7161,0,U,65565,999,4233,.67721E-5,.19E-6,0
PRAETORIAN SDA_603,2025-203B,2026-07-13T12:16:37.193376,13.83962380,.0010754,81.3047,346.3160,118.9897,241.2339,0,U,65566,999,4234,.95138E-4,.118E-5,0
PRAETORIAN SDA_604,2025-203C,2026-07-13T11:24:56.579040,13.83049972,.0006536,81.3063,346.8023,125.2184,234.9585,0,U,65567,999,4231,.10277E-4,.23E-6,0
PRAETORIAN SDA_605,2025-203D,2026-07-13T12:11:19.587840,13.83199862,.0009283,81.3029,346.4144,117.3151,242.8952,0,U,65568,999,4233,.44934E-5,.17E-6,0
PRAETORIAN SDA_606,2025-203E,2026-07-13T11:49:58.600704,13.83200030,.0007132,81.3065,346.6654,119.9498,240.2367,0,U,65569,999,4232,.11929E-4,.25E-6,0
PRAETORIAN SDA_607,2025-203F,2026-07-13T11:37:04.853280,13.83758599,.0009955,81.3049,346.2958,118.8314,241.3842,0,U,65570,999,4234,.97375E-4,.12E-5,0
PRAETORIAN SDA_608,2025-203G,2026-07-13T11:12:01.492416,13.83819310,.0007024,81.3017,346.4762,124.1951,235.9872,0,U,65571,999,4232,.16026E-4,.3E-6,0
PRAETORIAN SDA_609,2025-203H,2026-07-13T11:08:22.706880,13.84211532,.0007924,81.3059,346.4569,119.0476,241.1475,0,U,65572,999,4233,.86305E-4,.108E-5,0
PRAETORIAN SDA_610,2025-203J,2026-07-08T21:24:36.728928,13.83769338,.00076481,81.3015,350.6711,134.1093,226.0694,0,U,65573,999,4169,.29957645E-4,.45E-6,0
PRAETORIAN SDA_611,2025-203K,2026-07-13T10:57:52.213248,13.83312942,.0006865,81.3021,346.6292,127.9026,232.2752,0,U,65574,999,4231,.40209E-3,.453E-5,0
PRAETORIAN SDA_612,2025-203L,2026-07-13T11:39:44.263872,13.85040619,.0010313,81.3038,346.1239,118.8344,241.3850,0,U,65575,999,4235,.11885E-3,.146E-5,0
PRAETORIAN SDA_613,2025-203M,2026-07-13T11:22:26.929920,13.82767546,.0006744,81.3010,346.6312,118.7412,241.4422,0,U,65576,999,4231,.16486E-4,.3E-6,0
PRAETORIAN SDA_614,2025-203N,2026-07-13T11:31:18.335712,13.84778470,.0008193,81.3025,346.2141,117.2041,242.9952,0,U,65577,999,4235,.39391E-5,.16E-6,0
PRAETORIAN SDA_615,2025-203P,2026-07-13T11:07:20.345088,13.84438392,.0010149,81.3034,346.2099,118.0073,242.2112,0,U,65578,999,4234,.13876E-3,.167E-5,0
PRAETORIAN SDA_616,2025-203Q,2026-07-13T10:57:51.909984,13.83271964,.0006787,81.3076,346.7923,126.2982,233.8802,0,U,65579,999,4231,.13229E-3,.157E-5,0
PRAETORIAN SDA_617,2025-203R,2026-07-13T11:32:12.287328,13.83152025,.0008451,81.3048,346.5991,117.6575,242.5439,0,U,65580,999,4232,.19158E-4,.33E-6,0
PRAETORIAN SDA_618,2025-203S,2026-07-13T12:04:01.214112,13.84225644,.001083,81.3032,346.1049,120.9986,239.2236,0,U,65581,999,4235,.92837E-4,.116E-5,0
PRAETORIAN SDA_619,2025-203T,2026-07-13T11:27:26.013024,13.83806083,.0009306,81.3055,346.4553,118.5858,241.6236,0,U,65582,999,4296,.12179E-3,.147E-5,0
PRAETORIAN SDA_620,2025-203U,2026-07-13T12:16:54.405120,13.83207624,.0008592,81.3043,346.4544,115.5995,244.6050,0,U,65583,999,4233,.10998E-3,.132E-5,0
PRAETORIAN SDA_621,2025-203V,2026-07-13T11:30:04.601088,13.83803655,.0008472,81.3031,346.3863,112.8382,247.3670,0,U,65584,999,4233,.1774E-5,.14E-6,0
PRAETORIAN SDA_601,2025-203W,2026-07-13T11:05:06.965952,13.83170504,.0006635,81.3049,346.7289,128.8961,231.2788,0,U,65585,999,4231,.38863E-3,.438E-5,0
VICTUS HAZE PUMA,2026-142A,2026-07-13T12:49:48.309024,15.20840853,.0025032,97.4471,91.8573,272.0575,87.7794,0,U,69646,999,367,.97535E-4,.2098E-4,0
