SAR-LUPE 2              
1 31797U 07030A   26194.52312125  .00027536  00000+0  43322-3 0  9999
2 31797  98.1059 302.3043 0004732 208.2213 151.8782 15.53577011 61026
SAPPHIRE                
1 39088U 13009C   26194.51405588  .00000040  00000+0  28925-4 0  9992
2 39088  98.4272  13.3462 0011483 164.7701 195.3833 14.35247289700356
PRAETORIAN SDA_602      
1 65565U 25203A   26194.48316530  .00000019  00000+0  67721-5 0  9998
2 65565  81.3041 346.4205 0007028 121.4684 238.7161 13.83887782 42338
PRAETORIAN SDA_603      
1 65566U 25203B   26194.51154159  .00000118  00000+0  95138-4 0  9992
2 65566  81.3047 346.3160 0010754 118.9897 241.2339 13.83962380 42346
PRAETORIAN SDA_604      
1 65567U 25203C   26194.47565485  .00000023  00000+0  10277-4 0  9992
2 65567  81.3063 346.8023 0006536 125.2184 234.9585 13.83049972 42313
PRAETORIAN SDA_605      
1 65568U 25203D   26194.50786560  .00000017  00000+0  44934-5 0  9997
2 65568  81.3029 346.4144 0009283 117.3151 242.8952 13.83199862 42336
PRAETORIAN SDA_606      
1 65569U 25203E   26194.49303936  .00000025  00000+0  11929-4 0  9994
2 65569  81.3065 346.6654 0007132 119.9498 240.2367 13.83200030 42329
PRAETORIAN SDA_607      
1 65570U 25203F   26194.48408395  .00000120  00000+0  97375-4 0  9995
2 65570  81.3049 346.2958 0009955 118.8314 241.3842 13.83758599 42346
PRAETORIAN SDA_608      
1 65571U 25203G   26194.46668394  .00000030  00000+0  16026-4 0  9995
2 65571  81.3017 346.4762 0007024 124.1951 235.9872 13.83819310 42328
PRAETORIAN SDA_609      
1 65572U 25203H   26194.46415170  .00000108  00000+0  86305-4 0  9991
2 65572  81.3059 346.4569 0007924 119.0476 241.1475 13.84211532 42336
PRAETORIAN SDA_610      
1 65573U 25203J   26189.89209177  .00000045  00000+0  29958-4 0  9992
2 65573  81.3015 350.6711 0007648 134.1093 226.0694 13.83769338 41695
PRAETORIAN SDA_611      
1 65574U 25203K   26194.45685432  .00000453  00000+0  40209-3 0  9997
2 65574  81.3021 346.6292 0006865 127.9026 232.2752 13.83312942 42317
PRAETORIAN SDA_612      
1 65575U 25203L   26194.48592898  .00000146  00000+0  11885-3 0  9991
2 65575  81.3038 346.1239 0010313 118.8344 241.3850 13.85040619 42352
PRAETORIAN SDA_613      
1 65576U 25203M   26194.47392280  .00000030  00000+0  16486-4 0  9999
2 65576  81.3010 346.6312 0006744 118.7412 241.4422 13.82767546 42312
PRAETORIAN SDA_614      
1 65577U 25203N   26194.48007333  .00000016  00000+0  39391-5 0  9998
2 65577  81.3025 346.2141 0008193 117.2041 242.9952 13.84778470 42355
PRAETORIAN SDA_615      
1 65578U 25203P   26194.46342992  .00000167  00000+0  13876-3 0  9995
2 65578  81.3034 346.2099 0010149 118.0073 242.2112 13.84438392 42342
PRAETORIAN SDA_616      
1 65579U 25203Q   26194.45685081  .00000157  00000+0  13229-3 0  9995
2 65579  81.3076 346.7923 0006787 126.2982 233.8802 13.83271964 42311
PRAETORIAN SDA_617      
1 65580U 25203R   26194.48069777  .00000033  00000+0  19158-4 0  9999
2 65580  81.3048 346.5991 0008451 117.6575 242.5439 13.83152025 42327
PRAETORIAN SDA_618      
1 65581U 25203S   26194.50279183  .00000116  00000+0  92837-4 0  9994
2 65581  81.3032 346.1049 0010830 120.9986 239.2236 13.84225644 42358
PRAETORIAN SDA_619      
1 65582U 25203T   26194.47738441  .00000147  00000+0  12179-3 0  9992
2 65582  81.3055 346.4553 0009306 118.5858 241.6236 13.83806083 42969
PRAETORIAN SDA_620      
1 65583U 25203U   26194.51174080  .00000132  00000+0  10998-3 0  9992
2 65583  81.3043 346.4544 0008592 115.5995 244.6050 13.83207624 42336
PRAETORIAN SDA_621      
1 65584U 25203V   26194.47921992  .00000014  00000+0  17740-5 0  9993
2 65584  81.3031 346.3863 0008472 112.8382 247.3670 13.83803655 42338
PRAETORIAN SDA_601      
1 65585U 25203W   26194.46188618  .00000438  00000+0  38863-3 0  9990
2 65585  81.3049 346.7289 0006635 128.8961 231.2788 13.83170504 42313
VICTUS HAZE PUMA        
1 69646U 26142A   26194.53458691  .00002098  00000+0  97535-4 0  9990
2 69646  97.4471  91.8573 0025032 272.0575  87.7794 15.20840853  3672
